#aV2020  3  7  0  0  0.00000000     288 DD+AD WGS84 FIT  NGA
## 2095 518400.00000000   300.00000000 58915 0.0000000000000
+   32     1  2  3  4  5  6  7  8  9 10 11 12 13 14 15 16 17
+         18 19 20 21 22 23 24 25 26 27 28 29 30 31 32  0  0
+          0  0  0  0  0  0  0  0  0  0  0  0  0  0  0  0  0
+          0  0  0  0  0  0  0  0  0  0  0  0  0  0  0  0  0
+          0  0  0  0  0  0  0  0  0  0  0  0  0  0  0  0  0
++         2  2  2  2  2  2  2  2  2  2  2  2  2  2  2  2  2
++         2  2  2  2  2  2  2  2  2  2  2  2  2  2  2  0  0
++         0  0  0  0  0  0  0  0  0  0  0  0  0  0  0  0  0
++         0  0  0  0  0  0  0  0  0  0  0  0  0  0  0  0  0
++         0  0  0  0  0  0  0  0  0  0  0  0  0  0  0  0  0
%c cc cc ccc ccc cccc cccc cccc cccc ccccc ccccc ccccc ccccc
%c cc cc ccc ccc cccc cccc cccc cccc ccccc ccccc ccccc ccccc
%f  0.0000000  0.000000000  0.00000000000  0.000000000000000
%f  0.0000000  0.000000000  0.00000000000  0.000000000000000
%i    0    0    0    0      0      0      0      0         0
%i    0    0    0    0      0      0      0      0         0
/*      NGA, ST. LOUIS,MO.                                  
/*   EPHEMERIS COMPUTED FROM 2 DAYS OF DATA                 
/*   EPOCHA v5 SMOOTHER                                     
/*   G1762 IERS2010 SATAF SATAPC                            
*  2020  3  7 19 10  0.00000000
P  1   8564.327425 -18715.998430 -16802.817007   -318.320159                    
V  1  18665.344984  -9827.255951  21038.249588     -0.123834                    
P  2 -22167.121237  14227.133069  -2417.766580   -417.779033                    
V  2   1314.034202  -4715.792863 -31546.299052     -0.067566                    
P  3  -3276.836583 -17303.906359 -19966.049451   -112.048952                    
V  3  22810.903433  10733.552649 -12987.507391     -0.095950                    
P  4    592.781921 -26508.491590  -1292.902068    -59.014755                    
V  4   2872.445075   1619.147015 -31705.553630     -0.053310                    
P  5 -17870.941617   6091.626212  18623.341581     -8.740337                    
V  5 -20855.946874 -11738.207297 -15864.310177     -0.006101                    
P  6 -22800.755140   4248.715313 -12928.333555   -225.660945                    
V  6  12889.347836 -10394.034475 -25993.235033     -0.087715                    
P  7  -9678.237992 -12225.592026  21811.681857   -230.578582                    
V  7  22973.961284 -14212.436158   1780.133042     -0.084961                    
P  8   6987.638817 -22460.186290  12110.599354    -26.286478                    
V  8   3177.222481  15254.556960  26757.530371     -0.013464                    
P  9  -7610.721555 -23880.796289   8711.517234   -171.508474                    
V  9   2169.182175 -11300.127365 -28918.952195     -0.082538                    
P 10  24090.187895  11390.575785  -1391.631551   -269.603484                    
V 10    503.152767   3058.610199  31633.163375     -0.127032                    
P 11  11591.607431 -23936.701278  -3081.407843   -340.609619                    
V 11   5146.548200   -796.280053  30124.579550      0.108084                    
P 12   -369.440615  16427.847369 -21136.751786    143.287824                    
V 12 -22639.082722 -13219.494121  -9823.311876     -0.042396                    
P 13 -12819.040693  16076.272717  16644.127922     -7.517654                    
V 13     11.612244 -21454.105656  20661.238534      0.028425                    
P 14  15073.229118  -1088.742615 -21498.584251    -27.823324                    
V 14   -743.407990  28102.648759  -2095.903489      0.024507                    
P 15  -4785.179116  23401.818294  10893.815038   -246.581182                    
V 15  -5728.276924 -13806.294639  26781.449595      0.026152                    
P 16  17897.754222  -3851.792198  19197.462051   -132.443185                    
V 16  20262.413050  14022.932827 -15463.890916     -0.042569                    
P 17 -13270.103645 -10287.632778 -20169.496949    228.215397                    
V 17   1200.879719 -26477.532631  12409.080689      0.062014                    
P 18  14940.474449 -19607.852699 -10276.513731      5.961253                    
V 18  11516.126002  -5136.024056  28011.942645      0.015795                    
P 19 -14816.174086  -1399.558831 -22294.063398   -188.915399                    
V 19   1646.713483 -27480.651666    640.091011      0.051254                    
P 20  19852.429787  14877.006647   9685.604020    527.875952                    
V 20 -12727.450038  -1295.243376  27625.133751     -0.000104                    
P 21  11087.688520  11367.030811  22069.648652    -31.002359                    
V 21 -20944.260522  15770.512433   2748.849804      0.052138                    
P 22   5721.788396 -14701.666359 -21145.509551   -785.370762                    
V 22  25353.076030  10639.167619   -410.266990     -0.002180                    
P 23  -1563.110456 -26297.060718   -271.862330   -131.332387                    
V 23   3737.318453    529.385136 -31622.456340      0.026547                    
P 24  -9294.460312  20040.932554 -14672.013435    -10.032785                    
V 24 -16641.429584   8576.138828  22917.228673     -0.005357                    
P 25  12106.702265  18314.239513 -15372.982632    -10.148415                    
V 25 -17580.592397  -7347.905285 -22682.501963      0.017586                    
P 26  23720.507807   1842.213938  11999.621789    162.934476                    
V 26  12626.769420   8890.535804 -26036.090195      0.075913                    
P 27  12376.391857 -13108.174020  19259.099193   -231.893145                    
V 27   2401.291230  24707.933227  15498.620015     -0.108381                    
P 28 -22954.684469 -12854.767560  -2432.115837    734.485105                    
V 28  -1901.801495  -4092.002100  32045.142947     -0.025612                    
P 29   4425.012888  25041.139537   7601.378162    -50.863558                    
V 29  -2148.857907   9631.052108 -30349.996332     -0.093824                    
P 30 -19154.597461  -4086.755931  18059.873382   -170.053834                    
V 30  18815.295698 -13123.753080  16810.627332     -0.088052                    
P 31  23991.011867  -5830.805994 -10423.931386    -27.920588                    
V 31 -10043.364595   8589.590296 -27570.348092     -0.024849                    
P 32  14718.942856   8830.647911 -20235.085945    230.544514                    
V 32    318.140643  25842.115855  11329.328137      0.093159                    
EOF
